AETHER-2                
1 58299U 23174AV  26068.71793741  .00008341  00000+0  26166-3 0  9990
2 58299  97.3931 151.9008 0008630 139.5247 220.6639 15.33264165129982
STARLINK-31780          
1 59432U 24065M   26068.84833796  .00000704  00000+0  35900-4 0  9991
2 59432  53.1605 280.9375 0001327  91.6245 268.4908 15.30188189108953
